LEDSAT                  
1 49069U 21073D   24211.75411775  .00020505  00000+0  78276-3 0  9992
2 49069  97.4355 282.6422 0019716 132.6842 227.6061 15.26495969162941
ROBUSTA-1F (MTCUBE 2)   
1 53109U 22080E   24210.96065832 -.00000003  00000+0  00000+0 0  9990
2 53109  70.1207 177.5971 0007677  78.7715 281.3807  6.42584401 47842
SITRO-AIS 5 (KATYS)     
1 57176U 23091L   24211.86515813  .00008514  00000+0  53608-3 0  9990
2 57176  97.6103 263.6978 0016289 340.9513  19.1104 15.09316776 59933
SITRO-AIS 6 (CHIRKIN)   
1 57192U 23091AC  24211.84865288  .00008232  00000+0  51772-3 0  9997
2 57192  97.6095 263.7089 0016188 340.0496  20.0098 15.09371244 59938
SITRO-AIS 8 (ANOKHIN)   
1 57193U 23091AD  24211.80680845  .00009185  00000+0  57120-3 0  9999
2 57193  97.6100 263.7554 0015847 341.9060  18.1603 15.09753185 59939
SITRO-AIS 7 (FARTUSHNIY)
1 57194U 23091AE  24211.85497374  .00007877  00000+0  49629-3 0  9999
2 57194  97.6096 263.6934 0016038 341.0775  18.9856 15.09322271 59938
SITRO-AIS 10 (BURDAEV)  
1 57199U 23091AK  24211.85770163  .00009671  00000+0  57190-3 0  9990
2 57199  97.6112 264.8363 0010815 329.6853  30.3750 15.11627646 60005
SITRO-AIS 9 (SHCHUKIN)  
1 57201U 23091AM  24211.85652127  .00009166  00000+0  54256-3 0  9992
2 57201  97.6107 264.8121 0010772 329.5681  30.4922 15.11605440 60005
SITRO-AIS 12 (SMIRENNIY)
1 57204U 23091AQ  24211.81360078  .00010207  00000+0  60044-3 0  9992
2 57204  97.6120 264.9174 0010568 323.4914  36.5594 15.11801855 60007
SITRO-AIS 11 (SHEFFER)  
1 57208U 23091AU  24211.86305216  .00009735  00000+0  57151-3 0  9993
2 57208  97.6115 264.9937 0010420 323.5280  36.5240 15.11892053 60015
ROBUSTA-1E (ENSO)       
1 58470U 23185J   24211.87870652  .00018678  00000+0  75136-3 0  9990
2 58470  97.4241 278.1899 0013498 127.9440 232.3019 15.24865132 36645
SITRO-AIS 29            
1 59052U 24039B   24211.83361843  .00027664  00000+0  94690-3 0  9990
2 59052  97.3929 173.5537 0019582  71.5027 288.8340 15.30016832 23119
SITRO-AIS 30            
1 59053U 24039C   24211.90032658  .00026810  00000+0  91999-3 0  9999
2 59053  97.3927 173.6124 0019699  71.8434 288.4949 15.29938860 23118
SITRO-AIS 31            
1 59054U 24039D   24211.88978992  .00026763  00000+0  91425-3 0  9998
2 59054  97.3928 173.6272 0019594  71.8535 288.4838 15.30087224 23130
SITRO-AIS 33            
1 59055U 24039E   24211.87797951  .00027047  00000+0  91991-3 0  9996
2 59055  97.3931 173.6493 0019338  72.5080 287.8272 15.30232613 23127
SITRO-AIS 35            
1 59056U 24039F   24211.87381983  .00029451  00000+0  10003-2 0  9996
2 59056  97.3929 173.6515 0019132  72.8660 287.4674 15.30262574 23120
SITRO-AIS 32            
1 59057U 24039G   24211.88364225  .00026857  00000+0  91695-3 0  9992
2 59057  97.3931 173.6406 0019199  72.9202 287.4140 15.30111648 23122
SITRO-AIS 34            
1 59058U 24039H   24211.87857212  .00026480  00000+0  90191-3 0  9997
2 59058  97.3932 173.6500 0019356  72.7467 287.5890 15.30189579 23126
SITRO-AIS 36            
1 59059U 24039J   24211.86770415  .00025132  00000+0  85327-3 0  9994
2 59059  97.3929 173.6599 0018917  73.0398 287.2915 15.30312331 23129
SITRO-AIS 49            
1 59060U 24039K   24211.86888844  .00025829  00000+0  87823-3 0  9998
2 59060  97.3930 173.6585 0018923  72.5451 287.7857 15.30258243 23120
SITRO-AIS 50            
1 59061U 24039L   24211.85598546  .00028908  00000+0  97649-3 0  9993
2 59061  97.3928 173.6742 0018825  72.8271 287.5029 15.30450108 23120
SITRO-AIS 51            
1 59062U 24039M   24211.85586668  .00028326  00000+0  95734-3 0  9993
2 59062  97.3928 173.6752 0018826  72.5998 287.7299 15.30436779 23125
SITRO-AIS 52            
1 59063U 24039N   24211.84726344  .00027789  00000+0  93585-3 0  9994
2 59063  97.3931 173.6881 0018715  72.7532 287.5755 15.30558555 23128
SITRO-AIS 25            
1 59066U 24039R   24211.84992141  .00004465  00000+0  42518-3 0  9993
2 59066  95.4006 126.2694 0169758 195.4978 164.1009 14.83347705 22435
SITRO-AIS 26            
1 59067U 24039S   24211.85036790  .00004333  00000+0  41320-3 0  9998
2 59067  95.4006 126.2681 0169691 195.5319 164.0658 14.83312390 22439
SITRO-AIS 27            
1 59068U 24039T   24211.83630156  .00004425  00000+0  42038-3 0  9992
2 59068  95.4008 126.2850 0169292 195.3744 164.2299 14.83489126 22432
SITRO-AIS 28            
1 59071U 24039U   24211.83254991  .00004247  00000+0  40336-3 0  9996
2 59071  95.4009 126.2899 0169123 195.3520 164.2535 14.83532203 22433
GRBBETA                 
1 60237U 24128C   24211.56837545  .00004676  00000+0  42033-3 0  9995
2 60237  61.9946  93.4265 0010694 295.1706  64.8272 14.97013268  2949
OOV-CUBE                
1 60240U 24128F   24211.57563208  .00003385  00000+0  31363-3 0  9992
2 60240  61.9980  93.4723 0010286 278.2800  81.7121 14.96430767  2952
ROBUSTA-3A (MEDITERRAN*)
1 60243U 24128J   24211.58354432  .00006568  00000+0  59957-3 0  9998
2 60243  61.9923  93.4877 0012704 266.9703  92.9931 14.95914357  2959
BEIJING 1               
1 28890U 05043A   24211.85437074  .00000717  00000+0  15111-3 0  9993
2 28890  98.2048 334.4133 0013614 273.0611  86.9033 14.62417992   134
HUANJING 1A (HJ-1A)     
1 33320U 08041A   24211.89048890  .00002556  00000+0  34191-3 0  9998
2 33320  97.6318 216.8006 0018991 228.4397 131.5188 14.80183279856675
HUANJING 1B (HJ-1B)     
1 33321U 08041B   24211.88657382  .00001795  00000+0  23885-3 0  9992
2 33321  97.6267 221.3259 0036609 276.7432  82.9615 14.80429484856699
YAOGAN-4                
1 33446U 08061A   24211.82274717  .00003087  00000+0  41404-3 0  9996
2 33446  97.8785 142.8987 0016016 142.3907 217.8429 14.80002175843865
DEIMOS-1                
1 35681U 09041A   24211.84448467  .00001156  00000+0  18541-3 0  9996
2 35681  97.6818  31.4846 0000510 166.2727 193.8495 14.73432572805591
UK-DMC 2                
1 35683U 09041C   24211.85166127  .00001675  00000+0  26534-3 0  9996
2 35683  97.7866 357.7555 0001207  83.9708 276.1639 14.73475041805296
DMC3-FM1                
1 40715U 15032A   24211.92039921  .00001291  00000+0  16197-3 0  9992
2 40715  97.7443  89.5741 0006545 141.1722 218.9964 14.83803865487919
DMC3-FM2                
1 40716U 15032B   24211.80819572  .00001297  00000+0  16267-3 0  9992
2 40716  97.7496  90.5633 0008318 148.2938 211.8779 14.83810882487897
DMC3-FM3                
1 40717U 15032C   24211.90280719  .00001292  00000+0  16240-3 0  9995
2 40717  97.7545  91.9511 0009832 146.8874 213.2958 14.83718586487914
NOAA 15                 
1 25338U 98030A   24211.80894066  .00000422  00000+0  19250-3 0  9999
2 25338  98.5671 238.0432 0010037 193.5996 166.4916 14.26642064363510
DMSP 5D-3 F16 (USA 172) 
1 28054U 03048A   24211.88825483  .00000233  00000+0  14678-3 0  9996
2 28054  99.0214 218.7579 0006289 296.9679 127.8582 14.14058980 72314
NOAA 18                 
1 28654U 05018A   24211.82868571  .00000336  00000+0  20280-3 0  9990
2 28654  98.8732 288.4385 0013225 304.5389  55.4534 14.13265514989281
METEOSAT-9 (MSG-2)      
1 28912U 05049B   24211.23977458  .00000117  00000+0  00000+0 0  9992
2 28912   7.7806  60.5122 0000532 356.8583  21.9598  1.00271546   118
EWS-G1 (GOES 13)        
1 29155U 06018A   24208.76299578  .00000081  00000+0  00000+0 0  9993
2 29155   2.7265  84.8457 0075842 255.8386 300.4914  0.99029446 36424
DMSP 5D-3 F17 (USA 191) 
1 29522U 06050A   24211.84028491  .00000254  00000+0  15476-3 0  9993
2 29522  98.7441 221.5365 0009376 212.5791 147.4804 14.14510473915228
FENGYUN 3A              
1 32958U 08026A   24211.83001447  .00000265  00000+0  14686-3 0  9990
2 32958  98.6055 157.7214 0007892 316.0962  43.9586 14.19132213838003
NOAA 19                 
1 33591U 09005A   24211.85700649  .00000342  00000+0  20746-3 0  9994
2 33591  99.0446 268.1027 0014136 168.0424 192.1085 14.13059814797657
GOES 14                 
1 35491U 09033A   24211.50604889 -.00000070  00000+0  00000+0 0  9993
2 35491   0.4355 100.1786 0003554  23.5271 257.6321  1.00271830 55212
DMSP 5D-3 F18 (USA 210) 
1 35951U 09057A   24211.92789151  .00000531  00000+0  30143-3 0  9998
2 35951  98.8165 186.7094 0012168  49.3313 310.8916 14.14183172762407
EWS-G2 (GOES 15)        
1 36411U 10008A   24211.81529834  .00000034  00000+0  00000+0 0  9999
2 36411   0.5027 274.5206 0005288 285.2817 102.9379  1.00277488 52738
COMS 1                  
1 36744U 10032A   24211.78700575 -.00000351  00000+0  00000+0 0  9997
2 36744   3.0519  83.9006 0000726  63.5464 211.9094  1.00271011 51761
FENGYUN 3B              
1 37214U 10059A   24211.87341641  .00000177  00000+0  11607-3 0  9998
2 37214  99.0534 240.5582 0021663 334.6616 149.6838 14.14528031710288
SUOMI NPP               
1 37849U 11061A   24211.82702211  .00000172  00000+0  10250-3 0  9993
2 37849  98.7222 149.1679 0001806 108.3327 251.8046 14.19536756660914
FENGYUN 2F              
1 38049U 12002A   24211.88850472 -.00000365  00000+0  00000+0 0  9994
2 38049   5.6973  72.7058 0002213 130.5703 176.3957  1.00260757 45995
METEOSAT-10 (MSG-3)     
1 38552U 12035B   24211.30229112 -.00000011  00000+0  00000+0 0  9995
2 38552   3.0581  61.2706 0000385 201.9089 153.1391  1.00274105 43953
METOP-B                 
1 38771U 12049A   24211.82962781  .00000256  00000+0  13677-3 0  9994
2 38771  98.6254 268.0892 0001034  82.4281 277.7014 14.21458175615604
INSAT-3D                
1 39216U 13038B   24211.89588564 -.00000356  00000+0  00000+0 0  9992
2 39216   0.1422  95.1683 0001414 102.9615 190.9968  1.00558758 40418
FENGYUN 3C              
1 39260U 13052A   24211.91028156  .00000222  00000+0  13250-3 0  9992
2 39260  98.4301 209.2550 0010583 197.7378 162.3429 14.16238313561370
